[
    {
        "Altitude(m)": 557738.5604724356,
        "Argument of Periapsis(deg)": 0.033114955553567506,
        "Eccentricity": 0.0,
        "Inclination(deg)": 53.0,
        "Latitude(deg)": 43.66513706474325,
        "Longitude(deg)": -68.31988426103476,
        "Mean Anomaly(deg)": -300.4510356621121,
        "RAAN(deg)": 349.9507168426401,
        "Satellite Name": "Starlink Shell 1 1540",
        "Satellite Number": 1540,
        "Semi-Major Axis(m)": 6931778.249405717,
        "Time(s)": 950
    },
    {
        "Altitude(m)": 557816.3230110162,
        "Argument of Periapsis(deg)": 0.03346353403307874,
        "Eccentricity": 0.0,
        "Inclination(deg)": 53.0,
        "Latitude(deg)": 44.01340130031339,
        "Longitude(deg)": -67.63959184446657,
        "Mean Anomaly(deg)": -299.82420445855536,
        "RAAN(deg)": 349.9501980725626,
        "Satellite Name": "Starlink Shell 1 1540",
        "Satellite Number": 1540,
        "Semi-Major Axis(m)": 6931778.249405717,
        "Time(s)": 960
    },
    {
        "Altitude(m)": 557893.2925947107,
        "Argument of Periapsis(deg)": 0.03381211251258998,
        "Eccentricity": 0.0,
        "Inclination(deg)": 53.0,
        "Latitude(deg)": 44.35703498809397,
        "Longitude(deg)": -66.95086920364903,
        "Mean Anomaly(deg)": -299.19737325499864,
        "RAAN(deg)": 349.94967930248515,
        "Satellite Name": "Starlink Shell 1 1540",
        "Satellite Number": 1540,
        "Semi-Major Axis(m)": 6931778.249405717,
        "Time(s)": 970
    },
    {
        "Altitude(m)": 557969.420878976,
        "Argument of Periapsis(deg)": 0.034160690992101214,
        "Eccentricity": 0.0,
        "Inclination(deg)": 53.0,
        "Latitude(deg)": 44.69592907936067,
        "Longitude(deg)": -66.2536316425337,
        "Mean Anomaly(deg)": -298.5705420514419,
        "RAAN(deg)": 349.9491605324077,
        "Satellite Name": "Starlink Shell 1 1540",
        "Satellite Number": 1540,
        "Semi-Major Axis(m)": 6931778.249405717,
        "Time(s)": 980
    },
    {
        "Altitude(m)": 558044.6601545875,
        "Argument of Periapsis(deg)": 0.034509269471612446,
        "Eccentricity": 0.0,
        "Inclination(deg)": 53.0,
        "Latitude(deg)": 45.02997284437965,
        "Longitude(deg)": -65.54779918150811,
        "Mean Anomaly(deg)": -297.9437108478852,
        "RAAN(deg)": 349.9486417623302,
        "Satellite Name": "Starlink Shell 1 1540",
        "Satellite Number": 1540,
        "Semi-Major Axis(m)": 6931778.249405717,
        "Time(s)": 990
    }
]